#dP2021  5 24  0  0  0.00000000      96 __u+U ITR00 FIT  IAC
## 2159  86400.00000000   900.00000000 59358 0.0000000000000
+  126   C01C02C03C04C05C06C07C08C09C10C11C12C13C14C16C19C20
+        C21C22C23C24C25C26C27C28C29C30C32C33C34C35C36C37C38
+        C39C40C41C42C43C44C45C46C60E01E02E03E04E05E07E08E09
+        E11E12E13E14E15E18E19E21E24E25E26E27E30E31E33E36G01
+        G02G03G04G05G06G07G08G09G10G12G13G14G15G16G17G18G19
+        G20G21G22G23G24G25G26G27G28G29G30G31G32J01J02J03J07
+        R01R02R03R04R05R06R07R08R09R10R11R12R13R14R15R16R17
+        R18R19R20R21R22R23R24  0  0  0  0  0  0  0  0  0  0
++         0 12 13 13 13  9  9  9  9  9  9  9  9  9  9  8  8
++         8  8  8  8  8  7  8  8  8  8  8  8  8  8  8  8  9
++         9  8  8  8  8  8  7  9 13  4  4  4  5  4  5  5  4
++         4  4  4  4  4  4  4  5  4  4  4  5  5  4  5  4  4
++         4  4  4  3  4  4  4  4  4  4  3  4  4  4  4  4  4
++         4  4  4  4  4  4  4  4  4  4  3  4  4  9  9  8 14
++         7  6  6  6  6 13  6  6  5 13  8  6  8  6  5  7  6
++         6  7  7  6  8 13  6  0  0  0  0  0  0  0  0  0  0
%c M  cc GPS ccc cccc cccc cccc cccc ccccc ccccc ccccc ccccc
%c cc cc ccc ccc cccc cccc cccc cccc ccccc ccccc ccccc ccccc
%f  0.0000000  0.000000000  0.00000000000  0.000000000000000
%f  0.0000000  0.000000000  0.00000000000  0.000000000000000
%i    0    0    0    0      0      0      0      0         0
%i    0    0    0    0      0      0      0      0         0
/* INFORMATION & ANALYSIS CENTER (IAC)            RAPID DATA
/* S/V CLOCKS ARE ALIGNED TO GNSS TIME                      
/* G:C1WC2W R:C1PC2P E:C1XC5X C:C2IC6I J:C1CC2S             
/* PCV:IGS14_2148 OL/AL:FES2004  NONE     YN ORB:CoN CLK:CoN
*  2021 05 24  0 15  0.00000000
PC01      0.000000      0.000000      0.000000 999999.999999
PC02   4428.073194  41889.958400  -1261.596296    653.617146
PC03 -14720.358783  39493.061543  -1129.457005   -270.897998
PC04 -39614.239629  14456.280257     15.584851     19.321181
PC05  21920.879270  36005.544253   -922.467563   -123.561915
PC06 -18644.910193  37424.024193  -2169.281719    419.273375
PC07  -9146.368909  27646.219313  30893.229915    149.263083
PC08 -22549.469030  20185.056342 -29427.565760   -890.928876
PC09  -9397.525081  38921.477982  12789.785084    501.548109
PC10   5534.324988  34905.306680  23533.656302    -38.818459
PC11  -8730.725969 -14108.099132  22486.002766    358.288851
PC12   5650.740878 -24761.366944  11571.049747    871.634615
PC13  -8206.572865  23203.813712 -34179.578410    272.434734
PC14 -16787.269919 -21720.172584  -4800.893284    813.223195
PC16 -16735.899653  38569.576671    241.350204   -855.260445
PC19  19589.986455  14592.265462  13544.692202    845.992771
PC20  12401.053087  24844.720784  -2940.694003   -904.340490
PC21   2687.452575 -20684.019148  18548.331581   -938.978820
PC22  15665.817003  -4389.813514  22684.273317   -954.206277
PC23 -26152.883658   5686.403634   7904.927566   -914.904483
PC24  -9144.808087 -15329.017976 -21461.571201   -862.615249
PC25 -25731.037866  -5822.156234  -9131.945379   -912.385197
PC26  10572.873582 -15177.280068 -20892.350508    902.829105
PC27 -12423.788292  24829.015625  -2733.118857    536.590033
PC28 -19579.994927  13850.633238  14267.449272    -70.861063
PC29  15415.814879   4658.417556 -22801.870882    396.360805
PC30   2368.058881  21442.839491 -17697.632942    468.087789
PC32  -2488.213469  20735.237089 -18496.211926   -930.376808
PC33 -19645.085005 -14539.907200 -13436.776771   -937.159557
PC34  -2893.734063 -21046.343176  18095.102512   -666.661570
PC35  19171.302303 -14208.059165 -14507.853413   -266.794651
PC36  25397.091435   6661.372154   9482.752448   -726.444849
PC37 -11924.324146  14686.345595  20537.926807   -887.138064
PC38 -16805.364301  23424.033843 -30791.920702 999999.999999
PC39 -12785.783346  40032.777070   2113.097811     31.292143
PC40    614.269029  31528.031288  28079.036904    163.929329
PC41 -15802.906086   4147.540237 -22569.467055   -944.567108
PC42 -11852.264934 -24978.380958   3755.182598   -914.157586
PC43 -15211.519326  -5356.322484  22761.545253   -743.897947
PC44  11740.104085 -25215.447670   2475.738313    203.181808
PC45  26085.838031  -5762.199370  -8032.132840    448.152364
PC46  10219.619382  14969.823913  21216.886407    257.185427
PC60   7290.527850  41538.553109   -327.463240      0.325747
PE01  25583.097034  14726.039286   2177.636034  -1114.138063
PE02 -25639.416733 -14663.401849  -2057.897589    221.151455
PE03 -15041.645952 -15817.366390 -19980.558079   -434.180431
PE04  16533.478696  -6179.987011  23773.127908   -777.290149
PE05  -4688.837811 -28891.348366  -4388.529788   -278.601103
PE07  -8258.990412  24984.170974 -13556.085770   -541.291930
PE08 -16287.082852   6649.431437 -23799.123713   5997.349521
PE09   7977.980170 -25097.415357  13506.963762   5657.719218
PE11  18506.499643 -20550.617005  10570.649352   5942.818889
PE12  26251.293980 -10445.505093  -8871.040631   5195.735919
PE13 -18747.792886  20491.725677 -10221.434366    416.801929
PE14   9203.617988 -24530.895721  -5086.968128  -1441.414029
PE15 -26185.475754  10571.214615   8860.681949    812.670796
PE18   1647.156982  29190.883625  -9491.794414  -1578.055649
PE19  14135.092008  18011.553674  18772.404281    284.402794
PE21  11939.145566  19924.334696  18345.659366   -666.609517
PE24  10090.504440 -13387.167323 -24406.397820   -916.280248
PE25 -11745.668756 -19921.766268 -18472.586843   -534.741472
PE26    568.293878  18101.666117 -23413.187534   1775.966669
PE27  -9197.426876  13842.627741  24496.047797    -38.864001
PE30 -25216.097367  -1190.527617  15456.440603   2921.248979
PE31  24769.960970    334.694921 -16195.693742   -481.469144
PE33  18202.853261   5538.216677 -22677.740442   -468.932772
PE36    301.177022 -18332.493228  23240.794067   -211.188631
PG01  -2114.193739  16020.558165 -21265.563900    680.287198
PG02  21646.078869 -14757.257784   5180.438273   -606.699194
PG03   7386.903443  19825.561625 -16209.752970   -172.215766
PG04   -467.510657  25925.455050   5623.390077   -197.432850
PG05   7673.388099 -13223.753919  21559.379075    -42.827850
PG06  25187.872346  -5691.573004  -6295.980904     18.839330
PG07  13267.222867  10690.033159  20839.521920    159.206685
PG08  -5985.080658  25352.730078   4242.932728    -22.353829
PG09   8151.702362  20427.862695  14817.104844   -347.258116
PG10 -23026.116827 -10384.125838  -8522.120919   -128.008223
PG12  -4156.934593 -19776.421406 -17563.939679    -45.191052
PG13  13110.781762 -20422.723681  10498.873216    135.803303
PG14  22515.638004  11306.905065  -8467.684352     81.467873
PG15   3082.086025 -25915.267897   3405.923996   -147.325506
PG16 -12768.079236   8174.749044  21602.975094   -329.967846
PG17  13601.054699   5741.787573 -21653.563812    447.155558
PG18 -16042.234849  -8234.873801  19512.828670    349.540148
PG19  15685.041755  -3838.198213 -21350.583223      3.981416
PG20   -395.261028 -17247.688607  20214.855275    521.884162
PG21 -10076.476668  17659.164193 -16115.786957    120.216149
PG22  -1929.391878  16629.278305 -20463.702231   -606.730197
PG23 -20420.676029 -16884.410178   2171.536550    104.045490
PG24   6557.069407 -18221.969088 -18254.323314     95.272241
PG25 -15785.522633 -19832.064181  -8645.462809    142.780349
PG26 -19923.240448   1545.890363  17564.999712     89.221057
PG27 -12098.086728  18752.225867  13935.635257   -135.208152
PG28  21238.959127   7381.374232 -13439.425801    566.451477
PG29  -5704.579157 -21107.913677  14993.186967   -352.163637
PG30  23134.557129   1631.099513  13216.145830   -429.965372
PG31 -25634.094620   7132.699947  -3400.094176   -119.001227
PG32 -15022.447309  -2679.505979 -21628.615947     20.584724
PJ01 -20334.016866  23858.105773 -23620.788895   -383.597897
PJ02 -27344.496709  21831.094488  28449.493958     -0.002756
PJ03 -32329.124527  26146.812722  11912.013542     -6.189863
PJ07 -25396.842468  33652.064024    -23.420735     -0.010007
PR01 -10539.381245 -22992.355265  -3233.916030     79.882111
PR02 -13095.511578  -8343.982395 -20208.924778    479.755904
PR03  -7524.802332  10140.571757 -22106.546072     36.478325
PR04   2348.161017  22594.479992 -11567.750861     88.119395
PR05  10731.685419  22481.724675   5453.897220     72.298543
PR06  13336.092799   6832.071895  20633.340585    198.506344
PR07   7210.427193 -10848.028078  21981.728963    -42.438547
PR08  -2289.678773 -22639.067086  11606.651441    -59.147224
PR09  25228.737840   4012.271163   -252.376129     -5.630775
PR10  19601.078990  -4379.517315 -15689.493946    -70.965707
PR11   2248.516123 -10646.188013 -23060.366826     -6.221070
PR12 -16563.102640 -10683.030842 -16178.278428    231.364590
PR13 -25139.199498  -4295.780450   -436.491935    -55.185300
PR14 -18896.462014   4796.644982  16450.597447     64.584743
PR15  -1858.472370  10841.133604  23033.701429    103.659968
PR16  17520.044879  10177.723760  15391.117072    -15.448569
PR17 -18116.269248  16793.598255   6433.294411    426.604655
PR18 -11278.089862  20311.801974 -10458.546999     77.572260
PR19    505.133792  13689.710094 -21522.922507   -144.892104
PR20  14837.927350  -2772.222279 -20574.702709    -49.629365
PR21  17954.011666 -17329.167505  -5243.369256   -211.188669
PR22  10800.260596 -20160.779527  11379.247700   -114.178409
PR23  -6305.768860  -8527.158409  23185.716790    386.943253
PR24 -15429.306756   3332.370457  20051.256519     43.803164
EOF
